[{"OBJECT_NAME":"STARLINK-33710","OBJECT_ID":"2025-069B","EPOCH":"2026-03-09T10:37:03.023904","MEAN_MOTION":15.30193173,"ECCENTRICITY":0.00011585,"INCLINATION":53.1581,"RA_OF_ASC_NODE":143.8621,"ARG_OF_PERICENTER":74.9233,"MEAN_ANOMALY":285.1896,"EPHEMERIS_TYPE":0,"CLASSIFICATION_TYPE":"U","NORAD_CAT_ID":63434,"ELEMENT_SET_NO":999,"REV_AT_EPOCH":5336,"BSTAR":0.00063432923,"MEAN_MOTION_DOT":0.00018471,"MEAN_MOTION_DDOT":0},{"OBJECT_NAME":"CZ-4B DEB","OBJECT_ID":"2010-051E","EPOCH":"2026-03-08T22:01:50.125728","MEAN_MOTION":15.23766972,"ECCENTRICITY":0.00561086,"INCLINATION":97.769,"RA_OF_ASC_NODE":240.5013,"ARG_OF_PERICENTER":301.1291,"MEAN_ANOMALY":58.4449,"EPHEMERIS_TYPE":0,"CLASSIFICATION_TYPE":"U","NORAD_CAT_ID":38184,"ELEMENT_SET_NO":999,"REV_AT_EPOCH":82066,"BSTAR":0.0024566319,"MEAN_MOTION_DOT":0.00062123,"MEAN_MOTION_DDOT":0}]
